[{"OBJECT_NAME":"STARLINK-32710","OBJECT_ID":"2025-008T","EPOCH":"2026-03-09T00:08:03.895296","MEAN_MOTION":15.27583206,"ECCENTRICITY":0.00033494,"INCLINATION":43.0054,"RA_OF_ASC_NODE":281.4422,"ARG_OF_PERICENTER":264.1752,"MEAN_ANOMALY":95.8718,"EPHEMERIS_TYPE":0,"CLASSIFICATION_TYPE":"U","NORAD_CAT_ID":62604,"ELEMENT_SET_NO":999,"REV_AT_EPOCH":6546,"BSTAR":0.0012655591,"MEAN_MOTION_DOT":0.00034734,"MEAN_MOTION_DDOT":0},{"OBJECT_NAME":"JINJUSAT-1B","OBJECT_ID":"2025-052A","EPOCH":"2026-03-09T15:55:38.242848","MEAN_MOTION":15.30194857,"ECCENTRICITY":0.00055504,"INCLINATION":97.4113,"RA_OF_ASC_NODE":325.4613,"ARG_OF_PERICENTER":82.193,"MEAN_ANOMALY":277.9941,"EPHEMERIS_TYPE":0,"CLASSIFICATION_TYPE":"U","NORAD_CAT_ID":63210,"ELEMENT_SET_NO":999,"REV_AT_EPOCH":5486,"BSTAR":0.00068430401,"MEAN_MOTION_DOT":0.00019955,"MEAN_MOTION_DDOT":0}]
